AEROCUBE 8D             
1 41852U 16067E   25093.51185615  .00014119  00000+0  73239-3 0  9993
2 41852  98.1144 286.5823 0004187 193.5630 166.5489 15.16268839459264
AEROCUBE 8C             
1 41853U 16067F   25093.78676717  .00015382  00000+0  79455-3 0  9990
2 41853  98.0984 284.7947 0007261 130.9272 229.2589 15.16380924459297
PROMETHEUS 2-1          
1 41854U 16067G   25093.51767750  .00059475  00000+0  14162-2 0  9994
2 41854  98.0866 299.3282 0007999 132.8790 227.3127 15.41373290460054
PROMETHEUS 2-3          
1 41855U 16067H   25093.07177742  .00066262  00000+0  15819-2 0  9994
2 41855  98.0809 298.0527 0006929 143.9334 216.2379 15.41271547459987
CORVUS BC2              
1 42846U 17042X   25093.91946361  .00007609  00000+0  57990-3 0  9990
2 42846  97.3669 269.7580 0014129 166.3861 193.7748 15.02232210421027
CORVUS BC1              
1 42847U 17042Y   25093.44862180  .00009203  00000+0  69627-3 0  9997
2 42847  97.3702 269.7855 0012972 147.7373 212.4648 15.02466147420975
MIRATA                  
1 43015U 17073C   25093.63078835  .00094136  00000+0  20352-2 0  9996
2 43015  97.5491 345.9276 0096896 329.2089  30.3493 15.39232467400476
MAKERSAT 0              
1 43016U 17073D   25093.41488275  .00035231  00000+0  14861-2 0  9995
2 43016  97.5289 332.3205 0154157  13.2680 347.2534 15.12979161399570
SIRION PATHFINDER-2     
1 43759U 18099B   25093.69577179  .00011085  00000+0  70485-3 0  9996
2 43759  97.4851 148.2394 0009980  23.9017 336.2673 15.08944100346222
CORVUS BC4              
1 43767U 18099K   25093.66249045  .00009024  00000+0  59686-3 0  9990
2 43767  97.4674 144.3310 0010904  78.1323 282.1127 15.07539244346073
MOVE-II                 
1 43780U 18099Y   25093.72514979  .00142060  00000+0  22657-2 0  9998
2 43780  97.4716 165.4942 0000439   9.6371 350.4890 15.52716818347356
SPACEBEE-7              
1 43816U 18099BL  25093.61220261  .00047434  00000+0  15610-2 0  9994
2 43816  97.5017 162.7965 0005346 358.3040   1.8182 15.31342169346536
SHIELDS 1               
1 43850U 18104B   25093.41637279  .00050289  00000+0  72099-3 0  9995
2 43850  85.0135  83.6763 0010017  63.7407 296.4882 15.55898690350994
SONATE                  
1 44400U 19038Q   25093.52888502  .00136689  00000+0  11604-2 0  9996
2 44400  97.7031 112.7220 0010663 131.7174 228.5001 15.69147739318985
DUCHIFAT-3              
1 44854U 19089C   25093.28328491  .00075429  00000+0  18506-2 0  9996
2 44854  36.9467  61.0706 0004012 307.5664  52.4726 15.39574615292612
M2 PATHFINDER           
1 45727U 20037E   25093.45126906  .00009502  00000+0  73711-3 0  9996
2 45727  97.8126 275.6229 0012057 204.0917 155.9744 15.01538015259438
NETSAT-4                
1 46504U 20068U   25093.87131770  .00026990  00000+0  99060-3 0  9990
2 46504  97.8419  68.0649 0010597  80.4204 279.8231 15.27875802248351
NETSAT-3                
1 46505U 20068V   25093.86852618  .00024263  00000+0  92535-3 0  9992
2 46505  97.8412  67.1541 0010060  88.0909 272.1480 15.26635149248323
NETSAT-1                
1 46506U 20068W   25093.85485264  .00018692  00000+0  80905-3 0  9998
2 46506  97.8439  65.4264 0009357  98.5453 261.6843 15.22441691248209
NETSAT-2                
1 46507U 20068X   25093.91119443  .00025344  00000+0  93973-3 0  9990
2 46507  97.8411  67.6340 0008611 100.3347 259.8862 15.27571221248304
WILDTRACKCUBE-SIMBA     
1 47941U 21022K   25093.92032496  .00043619  00000+0  10677-2 0  9991
2 47941  97.4285 357.1474 0010560 178.2956 181.8328 15.40589731222913
GRBALPHA                
1 47959U 21022AD  25093.93255077  .00167658  00000+0  16374-2 0  9993
2 47959  97.4233   3.6498 0009255 145.4952 214.6910 15.65598040222164
LEDSAT                  
1 49069U 21073D   25093.75246973  .00077912  00000+0  13242-2 0  9992
2 49069  97.3934 172.9526 0010328 316.5712  43.4725 15.51120231201049
ROBUSTA-1F (MTCUBE 2)   
1 53109U 22080E   25093.35596653 -.00000003  00000+0  00000+0 0  9993
2 53109  70.1198  91.2032 0008551  22.0847 338.0180  6.42584486 63802
SITRO-AIS 5 (KATYS)     
1 57176U 23091L   25093.89195922  .00017588  00000+0  86347-3 0  9994
2 57176  97.5661 150.7832 0014760 195.9015 164.1757 15.18048268 97455
SITRO-AIS 6 (CHIRKIN)   
1 57192U 23091AC  25093.94157708  .00016600  00000+0  81693-3 0  9991
2 57192  97.5659 150.8534 0014697 195.1863 164.8931 15.17978043 97466
SITRO-AIS 8 (ANOKHIN)   
1 57193U 23091AD  25093.90707929  .00019373  00000+0  92019-3 0  9998
2 57193  97.5654 151.1910 0014272 195.5807 164.4990 15.19182278 97487
SITRO-AIS 7 (FARTUSHNIY)
1 57194U 23091AE  25093.89332651  .00016730  00000+0  82526-3 0  9999
2 57194  97.5658 150.7536 0014523 196.2468 163.8302 15.17895980 97457
SITRO-AIS 10 (BURDAEV)  
1 57199U 23091AK  25093.89694444  .00022112  00000+0  96234-3 0  9997
2 57199  97.5667 153.1649 0010516 178.5710 181.5557 15.22202943 97608
SITRO-AIS 9 (SHCHUKIN)  
1 57201U 23091AM  25093.90729561  .00021622  00000+0  94515-3 0  9997
2 57201  97.5662 153.1103 0010449 178.9975 181.1283 15.22058735 97604
SITRO-AIS 12 (SMIRENNIY)
1 57204U 23091AQ  25093.89826828  .00021897  00000+0  95138-3 0  9998
2 57204  97.5670 153.3535 0010497 172.9567 187.1818 15.22263377 97612
SITRO-AIS 11 (SHEFFER)  
1 57208U 23091AU  25093.92501242  .00022557  00000+0  97507-3 0  9992
2 57208  97.5666 153.4525 0010339 173.6032 186.5338 15.22431019 97622
VERONIKA                
1 58261U 23174F   25093.89548261  .00111306  00000+0  17162-2 0  9991
2 58261  97.4175 176.9163 0006806 267.9870  92.0604 15.53748423 78276
ROBUSTA-1E (ENSO)       
1 58470U 23185J   25093.90888112  .00065890  00000+0  12634-2 0  9994
2 58470  97.3789 167.2575 0006460 313.9135  46.1582 15.47760958 74697
SITRO-AIS 29            
1 59052U 24039B   25093.19222050  .00311355  00000+0  18970-2 0  9993
2 59052  97.4133  66.5510 0006604 172.2619 187.8749 15.76539249 61357
SITRO-AIS 30            
1 59053U 24039C   25093.87067863  .00236378  00000+0  16052-2 0  9998
2 59053  97.4135  67.0015 0006559 178.5240 181.6045 15.74236960 61436
SITRO-AIS 31            
1 59054U 24039D   25093.46171604  .00289260  00000+0  18277-2 0  9992
2 59054  97.4150  66.8061 0006068 176.7541 183.3765 15.75767295 61407
SITRO-AIS 33            
1 59055U 24039E   25093.87105837  .00283837  00000+0  17463-2 0  9993
2 59055  97.4135  67.3273 0006680 172.6601 187.4763 15.76389301 61462
SITRO-AIS 35            
1 59056U 24039F   25093.91416922  .00299240  00000+0  17913-2 0  9994
2 59056  97.4150  67.4300 0006230 171.3066 188.8308 15.76977200 61476
SITRO-AIS 32            
1 59057U 24039G   25093.93974837  .00271885  00000+0  17789-2 0  9997
2 59057  97.4150  67.2518 0006353 175.5122 184.6200 15.75006291 61467
SITRO-AIS 34            
1 59058U 24039H   25093.87319064  .00292203  00000+0  17981-2 0  9997
2 59058  97.4138  67.3304 0006538 171.6981 188.4394 15.76363686 61464
SITRO-AIS 36            
1 59059U 24039J   25093.92033270  .00257932  00000+0  16330-2 0  9993
2 59059  97.4136  67.3999 0006241 170.5257 189.6127 15.75805530 61474
SITRO-AIS 49            
1 59060U 24039K   25093.91503441  .00265694  00000+0  17607-2 0  9998
2 59060  97.4147  67.2679 0006377 175.0433 185.0895 15.74726979 61467
SITRO-AIS 50            
1 59061U 24039L   25093.88782975  .00304234  00000+0  17164-2 0  9998
2 59061  97.4116  67.5915 0006984 167.5174 192.6267 15.78299683 61482
SITRO-AIS 51            
1 59062U 24039M   25093.92844918  .00334145  00000+0  18303-2 0  9990
2 59062  97.4125  67.6916 0006927 168.5717 191.5708 15.78884371 61499
SITRO-AIS 52            
1 59063U 24039N   25093.90143901  .00339557  00000+0  18372-2 0  9991
2 59063  97.4135  67.7466 0006476 168.2734 191.8685 15.79148731 61498
SITRO-AIS 25            
1 59066U 24039R   25093.91909170  .00007920  00000+0  67604-3 0  9992
2 59066  95.3783 294.6790 0159298  58.9954 302.6805 14.88430741 59271
SITRO-AIS 26            
1 59067U 24039S   25093.93841086  .00008048  00000+0  68942-3 0  9994
2 59067  95.3782 294.6616 0159393  59.0884 302.5899 14.88285309 59278
SITRO-AIS 27            
1 59068U 24039T   25093.88054954  .00008352  00000+0  71082-3 0  9996
2 59068  95.3782 294.7230 0158660  58.7547 302.9110 14.88599940 59279
SITRO-AIS 28            
1 59071U 24039U   25093.93665680  .00008022  00000+0  68239-3 0  9994
2 59071  95.3784 294.7837 0158528  58.4890 303.1710 14.88640400 59287
GRBBETA                 
1 60237U 24128C   25093.90919813  .00008277  00000+0  63247-3 0  9992
2 60237  61.9930 311.8919 0045618  43.2485 317.2172 15.01822220 40189
OOV-CUBE (TUBSAT-30)    
1 60240U 24128F   25093.86913126  .00005409  00000+0  44296-3 0  9999
2 60240  61.9974 313.9914 0044791  39.5085 320.9256 14.99730364 40158
ROBUSTA-3A (MEDITERRAN*)
1 60243U 24128J   25093.89533715  .00013056  00000+0  94974-3 0  9992
2 60243  61.9899 311.7356 0043795  36.5275 323.8789 15.03361968 40197
LASARSAT                
1 62391U 24247Q   25093.48917159  .00029977  00000+0  12506-2 0  9992
2 62391  44.9908 164.7092 0006582 351.2039   8.8726 15.23198372 15828
CROCUBE                 
1 62394U 24247T   25093.48981251  .00030884  00000+0  12843-2 0  9992
2 62394  44.9899 164.7084 0007247 352.5949   7.4825 15.23289920 15829
